[{"OBJECT_NAME":"STARLINK-4011","OBJECT_ID":"2022-052T","EPOCH":"2025-07-29T09:07:38.604288","MEAN_MOTION":15.08838172,"ECCENTRICITY":0.0001173,"INCLINATION":53.2153,"RA_OF_ASC_NODE":206.594,"ARG_OF_PERICENTER":86.107,"MEAN_ANOMALY":274.0057,"EPHEMERIS_TYPE":0,"CLASSIFICATION_TYPE":"U","NORAD_CAT_ID":52615,"ELEMENT_SET_NO":999,"REV_AT_EPOCH":17706,"BSTAR":2.5558e-6,"MEAN_MOTION_DOT":-2.47e-6,"MEAN_MOTION_DDOT":0},{"OBJECT_NAME":"STARLINK-4015","OBJECT_ID":"2022-052U","EPOCH":"2025-07-29T07:47:29.484384","MEAN_MOTION":15.0883838,"ECCENTRICITY":0.0001125,"INCLINATION":53.2166,"RA_OF_ASC_NODE":191.8467,"ARG_OF_PERICENTER":79.9356,"MEAN_ANOMALY":280.1763,"EPHEMERIS_TYPE":0,"CLASSIFICATION_TYPE":"U","NORAD_CAT_ID":52616,"ELEMENT_SET_NO":999,"REV_AT_EPOCH":17727,"BSTAR":3.8147e-5,"MEAN_MOTION_DOT":3.19e-6,"MEAN_MOTION_DDOT":0},{"OBJECT_NAME":"STARLINK-3996","OBJECT_ID":"2022-052V","EPOCH":"2025-07-29T06:01:30.476352","MEAN_MOTION":15.08838849,"ECCENTRICITY":0.0001214,"INCLINATION":53.2163,"RA_OF_ASC_NODE":192.1766,"ARG_OF_PERICENTER":68.1072,"MEAN_ANOMALY":292.0049,"EPHEMERIS_TYPE":0,"CLASSIFICATION_TYPE":"U","NORAD_CAT_ID":52617,"ELEMENT_SET_NO":999,"REV_AT_EPOCH":17725,"BSTAR":-3.9759e-5,"MEAN_MOTION_DOT":-9.21e-6,"MEAN_MOTION_DDOT":0},{"OBJECT_NAME":"STARLINK-3983","OBJECT_ID":"2022-052W","EPOCH":"2025-07-29T09:17:35.060640","MEAN_MOTION":15.08832563,"ECCENTRICITY":0.0001325,"INCLINATION":53.217,"RA_OF_ASC_NODE":191.5656,"ARG_OF_PERICENTER":81.9127,"MEAN_ANOMALY":278.2016,"EPHEMERIS_TYPE":0,"CLASSIFICATION_TYPE":"U","NORAD_CAT_ID":52618,"ELEMENT_SET_NO":999,"REV_AT_EPOCH":17727,"BSTAR":-1.8023e-5,"MEAN_MOTION_DOT":-5.75e-6,"MEAN_MOTION_DDOT":0},{"OBJECT_NAME":"STARLINK-3741","OBJECT_ID":"2022-052X","EPOCH":"2025-07-29T04:20:49.507584","MEAN_MOTION":15.08831648,"ECCENTRICITY":0.0001321,"INCLINATION":53.2164,"RA_OF_ASC_NODE":192.4828,"ARG_OF_PERICENTER":82.298,"MEAN_ANOMALY":277.8162,"EPHEMERIS_TYPE":0,"CLASSIFICATION_TYPE":"U","NORAD_CAT_ID":52619,"ELEMENT_SET_NO":999,"REV_AT_EPOCH":17724,"BSTAR":7.6097e-5,"MEAN_MOTION_DOT":9.23e-6,"MEAN_MOTION_DDOT":0},{"OBJECT_NAME":"STARLINK-3984","OBJECT_ID":"2022-052Z","EPOCH":"2025-07-29T08:56:23.325216","MEAN_MOTION":15.08813365,"ECCENTRICITY":0.0001199,"INCLINATION":53.2164,"RA_OF_ASC_NODE":191.6323,"ARG_OF_PERICENTER":84.4529,"MEAN_ANOMALY":275.66,"EPHEMERIS_TYPE":0,"CLASSIFICATION_TYPE":"U","NORAD_CAT_ID":52621,"ELEMENT_SET_NO":999,"REV_AT_EPOCH":17727,"BSTAR":5.582e-5,"MEAN_MOTION_DOT":6.0e-6,"MEAN_MOTION_DDOT":0},{"OBJECT_NAME":"STARLINK-4008","OBJECT_ID":"2022-052AA","EPOCH":"2025-07-29T06:33:58.948416","MEAN_MOTION":15.088321,"ECCENTRICITY":0.0001171,"INCLINATION":53.2164,"RA_OF_ASC_NODE":207.077,"ARG_OF_PERICENTER":88.8842,"MEAN_ANOMALY":271.2284,"EPHEMERIS_TYPE":0,"CLASSIFICATION_TYPE":"U","NORAD_CAT_ID":52622,"ELEMENT_SET_NO":999,"REV_AT_EPOCH":17705,"BSTAR":-3.2597e-5,"MEAN_MOTION_DOT":-8.06e-6,"MEAN_MOTION_DDOT":0},{"OBJECT_NAME":"STARLINK-3988","OBJECT_ID":"2022-052AD","EPOCH":"2025-07-29T05:35:01.429152","MEAN_MOTION":15.08826285,"ECCENTRICITY":0.0001438,"INCLINATION":53.2162,"RA_OF_ASC_NODE":192.2599,"ARG_OF_PERICENTER":89.9946,"MEAN_ANOMALY":270.1211,"EPHEMERIS_TYPE":0,"CLASSIFICATION_TYPE":"U","NORAD_CAT_ID":52625,"ELEMENT_SET_NO":999,"REV_AT_EPOCH":17763,"BSTAR":0.00043686,"MEAN_MOTION_DOT":6.669e-5,"MEAN_MOTION_DDOT":0},{"OBJECT_NAME":"STARLINK-3992","OBJECT_ID":"2022-052AF","EPOCH":"2025-07-29T05:19:06.532896","MEAN_MOTION":15.0884081,"ECCENTRICITY":0.0001216,"INCLINATION":53.2162,"RA_OF_ASC_NODE":192.306,"ARG_OF_PERICENTER":79.9269,"MEAN_ANOMALY":280.186,"EPHEMERIS_TYPE":0,"CLASSIFICATION_TYPE":"U","NORAD_CAT_ID":52627,"ELEMENT_SET_NO":999,"REV_AT_EPOCH":17726,"BSTAR":3.0054e-5,"MEAN_MOTION_DOT":1.9e-6,"MEAN_MOTION_DDOT":0},{"OBJECT_NAME":"STARLINK-4001","OBJECT_ID":"2022-052AG","EPOCH":"2025-07-29T06:28:39.696960","MEAN_MOTION":15.08839032,"ECCENTRICITY":0.0001364,"INCLINATION":53.2164,"RA_OF_ASC_NODE":207.0931,"ARG_OF_PERICENTER":71.0874,"MEAN_ANOMALY":289.0266,"EPHEMERIS_TYPE":0,"CLASSIFICATION_TYPE":"U","NORAD_CAT_ID":52628,"ELEMENT_SET_NO":999,"REV_AT_EPOCH":17705,"BSTAR":1.5513e-5,"MEAN_MOTION_DOT":-4.1e-7,"MEAN_MOTION_DDOT":0},{"OBJECT_NAME":"STARLINK-4022","OBJECT_ID":"2022-052AH","EPOCH":"2025-07-29T05:08:30.077664","MEAN_MOTION":15.08843308,"ECCENTRICITY":0.0001318,"INCLINATION":53.2164,"RA_OF_ASC_NODE":192.3022,"ARG_OF_PERICENTER":91.1985,"MEAN_ANOMALY":268.9159,"EPHEMERIS_TYPE":0,"CLASSIFICATION_TYPE":"U","NORAD_CAT_ID":52629,"ELEMENT_SET_NO":999,"REV_AT_EPOCH":17725,"BSTAR":4.3819e-5,"MEAN_MOTION_DOT":4.1e-6,"MEAN_MOTION_DDOT":0},{"OBJECT_NAME":"STARLINK-3989","OBJECT_ID":"2022-052AJ","EPOCH":"2025-07-29T05:29:42.628704","MEAN_MOTION":15.08838548,"ECCENTRICITY":0.0001153,"INCLINATION":53.2162,"RA_OF_ASC_NODE":192.2768,"ARG_OF_PERICENTER":92.6102,"MEAN_ANOMALY":267.5022,"EPHEMERIS_TYPE":0,"CLASSIFICATION_TYPE":"U","NORAD_CAT_ID":52630,"ELEMENT_SET_NO":999,"REV_AT_EPOCH":17763,"BSTAR":-5.8158e-5,"MEAN_MOTION_DOT":-1.213e-5,"MEAN_MOTION_DDOT":0},{"OBJECT_NAME":"STARLINK-3794","OBJECT_ID":"2022-052AK","EPOCH":"2025-07-29T05:09:53.401824","MEAN_MOTION":15.08841138,"ECCENTRICITY":0.000116,"INCLINATION":53.2162,"RA_OF_ASC_NODE":192.345,"ARG_OF_PERICENTER":79.4742,"MEAN_ANOMALY":280.6381,"EPHEMERIS_TYPE":0,"CLASSIFICATION_TYPE":"U","NORAD_CAT_ID":52631,"ELEMENT_SET_NO":999,"REV_AT_EPOCH":17763,"BSTAR":2.8485e-5,"MEAN_MOTION_DOT":1.66e-6,"MEAN_MOTION_DDOT":0},{"OBJECT_NAME":"STARLINK-3995","OBJECT_ID":"2022-052AL","EPOCH":"2025-07-29T05:24:24.544512","MEAN_MOTION":15.08843838,"ECCENTRICITY":0.0001259,"INCLINATION":53.2159,"RA_OF_ASC_NODE":192.2917,"ARG_OF_PERICENTER":78.2754,"MEAN_ANOMALY":281.8379,"EPHEMERIS_TYPE":0,"CLASSIFICATION_TYPE":"U","NORAD_CAT_ID":52632,"ELEMENT_SET_NO":999,"REV_AT_EPOCH":17726,"BSTAR":5.8069e-5,"MEAN_MOTION_DOT":6.37e-6,"MEAN_MOTION_DDOT":0}]
