STARLINK-4011           
1 52615U 22052T   25210.38030792 -.00000247  00000+0  25558-5 0  9995
2 52615  53.2153 206.5940 0001173  86.1070 274.0057 15.08838172177069
STARLINK-4015           
1 52616U 22052U   25210.32464681  .00000319  00000+0  38147-4 0  9994
2 52616  53.2166 191.8467 0001125  79.9356 280.1763 15.08838380177274
STARLINK-3996           
1 52617U 22052V   25210.25104718 -.00000921  00000+0 -39759-4 0  9990
2 52617  53.2163 192.1766 0001214  68.1072 292.0049 15.08838849177259
STARLINK-3983           
1 52618U 22052W   25210.38721135 -.00000575  00000+0 -18023-4 0  9999
2 52618  53.2170 191.5656 0001325  81.9127 278.2016 15.08832563177275
STARLINK-3741           
1 52619U 22052X   25210.18112856  .00000923  00000+0  76097-4 0  9992
2 52619  53.2164 192.4828 0001321  82.2980 277.8162 15.08831648177244
STARLINK-3984           
1 52621U 22052Z   25210.37249219  .00000600  00000+0  55820-4 0  9993
2 52621  53.2164 191.6323 0001199  84.4529 275.6600 15.08813365177276
STARLINK-4008           
1 52622U 22052AA  25210.27359894 -.00000806  00000+0 -32597-4 0  9990
2 52622  53.2164 207.0770 0001171  88.8842 271.2284 15.08832100177055
STARLINK-3988           
1 52625U 22052AD  25210.23265543  .00006669  00000+0  43686-3 0  9997
2 52625  53.2162 192.2599 0001438  89.9946 270.1211 15.08826285177632
STARLINK-3992           
1 52627U 22052AF  25210.22160339  .00000190  00000+0  30054-4 0  9994
2 52627  53.2162 192.3060 0001216  79.9269 280.1860 15.08840810177269
STARLINK-4001           
1 52628U 22052AG  25210.26990390 -.00000041  00000+0  15513-4 0  9996
2 52628  53.2164 207.0931 0001364  71.0874 289.0266 15.08839032177051
STARLINK-4022           
1 52629U 22052AH  25210.21423701  .00000410  00000+0  43819-4 0  9998
2 52629  53.2164 192.3022 0001318  91.1985 268.9159 15.08843308177254
STARLINK-3989           
1 52630U 22052AJ  25210.22896561 -.00001213  00000+0 -58158-4 0  9995
2 52630  53.2162 192.2768 0001153  92.6102 267.5022 15.08838548177630
STARLINK-3794           
1 52631U 22052AK  25210.21520141  .00000166  00000+0  28485-4 0  9997
2 52631  53.2162 192.3450 0001160  79.4742 280.6381 15.08841138177634
STARLINK-3995           
1 52632U 22052AL  25210.22528408  .00000637  00000+0  58069-4 0  9997
2 52632  53.2159 192.2917 0001259  78.2754 281.8379 15.08843838177265
